






























    

            Aviation - Weather  | Southern Illinois University

  









Southern Illinois University Carbondale



Southern Illinois University Carbondale



Home


Navigation

Internal Links


Libraries


People Finder


A-Z Index


Contact Us


Campus Map


Application Links








MyCourses


Office 365


SalukiNet




SIU Main Navigation


«Click to open SIU menu»



About SIU


Admissions


Academics


Students


Research


Athletics




    

            Aviation - Weather  | Southern Illinois University

  


Aviation - Weather 

618-453-8898
reception@aviation.siu.edu




Menu

Main Navigation


Contact Us
School of Aviation- Weather545 N. Airport Road Murphysboro, IL 62966

    618-453-8898
        reception@aviation.siu.edu

  

















Breadcrumb Navigation





Main Navigation


Contact Us
School of Aviation- Weather545 N. Airport Road Murphysboro, IL 62966

    618-453-8898
        reception@aviation.siu.edu

  





Main Content



NOTICE: Although all weather products are taken from the National Weather Service, this data should be used only as a supplement to a formal weather briefing.

Last Updated: Monday, September 18th, 2023, 12:46 pm
Information on this page is updated every 5 minutes.


METARS

KMDH 181652Z 04008KT 10SM CLR 23/12 A3010 RMK AO2 SLP191 T02330117



KMDH 181552Z VRB05KT 10SM CLR 21/13 A3011 RMK AO2 SLP193 T02110133



KMDH 181452Z 36003KT 10SM CLR 19/14 A3011 RMK AO2 SLP194 T01890144 52012



KMWA 181647Z 36005KT 10SM FEW055 22/13 A3010



KMWA 181547Z 02005KT 10SM FEW055 21/16 A3011



KMWA 181447Z 03005KT 10SM CLR 18/16 A3011



KCGI 181653Z 02003KT 10SM CLR 24/13 A3009 RMK AO2 SLP186 T02440133



KCGI 181553Z 00000KT 10SM CLR 22/14 A3010 RMK AO2 SLP190 T02220144



KCGI 181453Z 00000KT 10SM CLR 19/15 A3010 RMK AO2 SLP190 T01940150 51009



KSAR 181715Z AUTO 35003KT 10SM CLR 23/11 A3011 RMK AO2 T02250112



KSAR 181655Z AUTO 04007KT 10SM CLR 22/11 A3011 RMK AO2 T02200114



KSAR 181635Z AUTO 32004KT 10SM CLR 22/12 A3012 RMK AO2 T02180115



KSAR 181615Z AUTO 34004KT 10SM CLR 21/12 A3012 RMK AO2 T02090122



KSAR 181555Z AUTO 00000KT 10SM CLR 20/13 A3012 RMK AO2 T02040128



KSAR 181535Z AUTO 00000KT 10SM CLR 20/14 A3012 RMK AO2 T02000135



KSAR 181515Z AUTO 00000KT 10SM CLR 19/14 A3012 RMK AO2 T01880137



KSAR 181455Z AUTO 00000KT 10SM CLR 18/14 A3012 RMK AO2 T01800138



KFAM 181656Z AUTO 33003KT 10SM BKN041 BKN055 22/13 A3011 RMK AO2 SLP203



KFAM 181556Z AUTO 00000KT 10SM CLR 21/13 A3013 RMK AO2 SLP208 T02110128



KFAM 181456Z AUTO 00000KT 10SM CLR 18/13 A3012 RMK AO2 SLP208 T01830133 51010



KMVN 181656Z AUTO VRB06KT 10SM CLR 23/10 A3010 RMK AO2 SLP194 T02330100



KMVN 181556Z AUTO 04007KT 10SM CLR 21/12 A3011 RMK AO2 SLP198 T02110117



KMVN 181456Z AUTO 06006KT 10SM CLR 19/13 A3011 RMK AO2 SLP198 60000 T01940133



KCIR 181715Z AUTO 01007KT 10SM CLR 25/13 A3009 RMK AO2 T02470127 PWINO



KCIR 181655Z AUTO 01008KT 350V050 10SM CLR 24/13 A3010 RMK AO2 T02410134 PWINO



KPAH 181653Z VRB03KT 10SM CLR 23/14 A3008 RMK AO2 SLP182 T02330139



KFAM 181656Z AUTO 33003KT 10SM BKN041 BKN055 22/13 A3011 RMK AO2 SLP203



KBLV 181655Z 03004KT 10SM FEW050 23/10 A3009 RMK AO2A SLP191 T02300101 $



KENL 181735Z AUTO 01005KT 10SM CLR 24/08 A3009 RMK AO2 T02420076



KENL 181715Z AUTO 00000KT 10SM CLR 23/08 A3010 RMK AO2 T02310081



KENL 181655Z AUTO 00000KT 10SM CLR 23/09 A3010 RMK AO2 T02300094



KMTO 181653Z AUTO 01006KT 10SM SCT048 23/09 A3008 RMK AO2 SLP184 T02280094



KCUL 181715Z AUTO 34009KT 10SM SCT043 SCT050 24/12 A3007 RMK AO2 T02420117



KCUL 181655Z AUTO 36008KT 10SM CLR 24/12 A3008 RMK AO2 T02380118



KEVV 181654Z 36005KT 10SM SCT025 23/12 A3008 RMK AO2 SLP183 T02330122



KCEY 181735Z AUTO 32010KT 10SM FEW042 24/13 A3008 RMK A01



KCEY 181715Z AUTO VRB04G10KT 10SM CLR 23/14 A3009 RMK A01



KCEY 181655Z AUTO 36007G12KT 300V030 10SM CLR 22/15 A3009 RMK A01



KHOP 181655Z AUTO 34003KT 10SM SCT021 20/17 A3006 RMK AO2 SLP179 T02040168



KARG 181656Z AUTO 00000KT 10SM CLR 26/12 A3009 RMK AO2 SLP190 T02560117



KJBR 181653Z AUTO 26006KT 10SM SCT055 27/11 A3010 RMK AO2 SLP188 T02670111 $



KALN 181650Z VRB04KT 10SM FEW030 22/10 A3011



KALN 181650Z VRB04KT 10SM FEW030 22/10 A3011



KCOU 181654Z 13006KT 10SM CLR 24/10 A3009 RMK AO2 SLP184 T02390100



KAJG 181655Z AUTO 36005KT 10SM SCT049 23/09 A3008 RMK AO2 T02290090



KM30 181735Z AUTO 34010KT 10SM SCT044 24/11 A3009 RMK AO2 T02360111



KM30 181715Z AUTO 36005KT 10SM CLR 23/12 A3009 RMK AO2 T02300117



KM30 181655Z AUTO 35004KT 10SM SCT036 23/12 A3009 RMK AO2 T02260124



KDEC 181654Z VRB04KT 10SM CLR 23/12 A3010 RMK AO2 SLP190 T02280117



KIJX 181715Z AUTO 13005KT 10SM CLR 23/06 A3009 RMK AO2 T02270056



KIJX 181655Z AUTO 23005KT 10SM CLR 22/06 A3010 RMK AO2 T02230059



TAFS



Southern Illinois University Carbondale



Southern Illinois University Carbondale



Home


Navigation

Internal Links


Libraries


People Finder


A-Z Index


Contact Us


Campus Map


Application Links








MyCourses


Office 365


SalukiNet




SIU Main Navigation


«Click to open SIU menu»



About SIU


Admissions


Academics


Students


Research


Athletics







Southern Illinois University Carbondale



Southern Illinois University Carbondale



Home


Navigation

Internal Links


Libraries


People Finder


A-Z Index


Contact Us


Campus Map


Application Links








MyCourses


Office 365


SalukiNet




SIU Main Navigation


«Click to open SIU menu»



About SIU


Admissions


Academics


Students


Research


Athletics




KEVV 181720Z 1818/1918 35007KT P6SM FEW025 



Southern Illinois University Carbondale



Southern Illinois University Carbondale



Home


Navigation

Internal Links


Libraries


People Finder


A-Z Index


Contact Us


Campus Map


Application Links








MyCourses


Office 365


SalukiNet




SIU Main Navigation


«Click to open SIU menu»



About SIU


Admissions


Academics


Students


Research


Athletics




        FM190000 VRB02KT P6SM SKC 



Southern Illinois University Carbondale



Southern Illinois University Carbondale



Home


Navigation

Internal Links


Libraries


People Finder


A-Z Index


Contact Us


Campus Map


Application Links








MyCourses


Office 365


SalukiNet




SIU Main Navigation


«Click to open SIU menu»



About SIU


Admissions


Academics


Students


Research


Athletics




        FM191600 15005KT P6SM SKC



Southern Illinois University Carbondale



Southern Illinois University Carbondale



Home


Navigation

Internal Links


Libraries


People Finder


A-Z Index


Contact Us


Campus Map


Application Links








MyCourses


Office 365


SalukiNet




SIU Main Navigation


«Click to open SIU menu»



About SIU


Admissions


Academics


Students


Research


Athletics







Southern Illinois University Carbondale



Southern Illinois University Carbondale



Home


Navigation

Internal Links


Libraries


People Finder


A-Z Index


Contact Us


Campus Map


Application Links








MyCourses


Office 365


SalukiNet




SIU Main Navigation


«Click to open SIU menu»



About SIU


Admissions


Academics


Students


Research


Athletics




Winds Aloft



Southern Illinois University Carbondale



Southern Illinois University Carbondale



Home


Navigation

Internal Links


Libraries


People Finder


A-Z Index


Contact Us


Campus Map


Application Links








MyCourses


Office 365


SalukiNet




SIU Main Navigation


«Click to open SIU menu»



About SIU


Admissions


Academics


Students


Research


Athletics







Southern Illinois University Carbondale



Southern Illinois University Carbondale



Home


Navigation

Internal Links


Libraries


People Finder


A-Z Index


Contact Us


Campus Map


Application Links








MyCourses


Office 365


SalukiNet




SIU Main Navigation


«Click to open SIU menu»



About SIU


Admissions


Academics


Students


Research


Athletics







Southern Illinois University Carbondale



Southern Illinois University Carbondale



Home


Navigation

Internal Links


Libraries


People Finder


A-Z Index


Contact Us


Campus Map


Application Links








MyCourses


Office 365


SalukiNet




SIU Main Navigation


«Click to open SIU menu»



About SIU


Admissions


Academics


Students


Research


Athletics







Southern Illinois University Carbondale



Southern Illinois University Carbondale



Home


Navigation

Internal Links


Libraries


People Finder


A-Z Index


Contact Us


Campus Map


Application Links








MyCourses


Office 365


SalukiNet




SIU Main Navigation


«Click to open SIU menu»



About SIU


Admissions


Academics


Students


Research


Athletics





 Reports



Southern Illinois University Carbondale



Southern Illinois University Carbondale



Home


Navigation

Internal Links


Libraries


People Finder


A-Z Index


Contact Us


Campus Map


Application Links








MyCourses


Office 365


SalukiNet




SIU Main Navigation


«Click to open SIU menu»



About SIU


Admissions


Academics


Students


Research


Athletics







Southern Illinois University Carbondale



Southern Illinois University Carbondale



Home


Navigation

Internal Links


Libraries


People Finder


A-Z Index


Contact Us


Campus Map


Application Links








MyCourses


Office 365


SalukiNet




SIU Main Navigation


«Click to open SIU menu»



About SIU


Admissions


Academics


Students


Research


Athletics



No pilot reports found for area.        


Southern Illinois University Carbondale



Southern Illinois University Carbondale



Home


Navigation

Internal Links


Libraries


People Finder


A-Z Index


Contact Us


Campus Map


Application Links








MyCourses


Office 365


SalukiNet




SIU Main Navigation


«Click to open SIU menu»



About SIU


Admissions


Academics


Students


Research


Athletics







Southern Illinois University Carbondale



Southern Illinois University Carbondale



Home


Navigation

Internal Links


Libraries


People Finder


A-Z Index


Contact Us


Campus Map


Application Links








MyCourses


Office 365


SalukiNet




SIU Main Navigation


«Click to open SIU menu»



About SIU


Admissions


Academics


Students


Research


Athletics





Area Forecast



Southern Illinois University Carbondale



Southern Illinois University Carbondale



Home


Navigation

Internal Links


Libraries


People Finder


A-Z Index


Contact Us


Campus Map


Application Links








MyCourses


Office 365


SalukiNet




SIU Main Navigation


«Click to open SIU menu»



About SIU


Admissions


Academics


Students


Research


Athletics







Southern Illinois University Carbondale



Southern Illinois University Carbondale



Home


Navigation

Internal Links


Libraries


People Finder


A-Z Index


Contact Us


Campus Map


Application Links








MyCourses


Office 365


SalukiNet




SIU Main Navigation


«Click to open SIU menu»



About SIU


Admissions


Academics


Students


Research


Athletics







Southern Illinois University Carbondale



Southern Illinois University Carbondale



Home


Navigation

Internal Links


Libraries


People Finder


A-Z Index


Contact Us


Campus Map


Application Links








MyCourses


Office 365


SalukiNet




SIU Main Navigation


«Click to open SIU menu»



About SIU


Admissions


Academics


Students


Research


Athletics





Significant Weather



Southern Illinois University Carbondale



Southern Illinois University Carbondale



Home


Navigation

Internal Links


Libraries


People Finder


A-Z Index


Contact Us


Campus Map


Application Links








MyCourses


Office 365


SalukiNet




SIU Main Navigation


«Click to open SIU menu»



About SIU


Admissions


Academics


Students


Research


Athletics







Southern Illinois University Carbondale



Southern Illinois University Carbondale



Home


Navigation

Internal Links


Libraries


People Finder


A-Z Index


Contact Us


Campus Map


Application Links








MyCourses


Office 365


SalukiNet




SIU Main Navigation


«Click to open SIU menu»



About SIU


Admissions


Academics


Students


Research


Athletics



WSUS32 KKCI 181555 
SIGC  
CONVECTIVE SIGMET...NONE 
 
OUTLOOK VALID 181755-182155 
FROM 40NNE CHE-CYS-AMA-70SSE FST-80SSE MRF-40W ELP-40NNE CHE 
WST ISSUANCES POSS. REFER TO MOST RECENT ACUS01 KWNS FROM STORM 
PREDICTION CENTER FOR SYNOPSIS AND METEOROLOGICAL DETAILS. 


Southern Illinois University Carbondale



Southern Illinois University Carbondale



Home


Navigation

Internal Links


Libraries


People Finder


A-Z Index


Contact Us


Campus Map


Application Links








MyCourses


Office 365


SalukiNet




SIU Main Navigation


«Click to open SIU menu»



About SIU


Admissions


Academics


Students


Research


Athletics



WSUS32 KKCI 181655 
SIGC  
CONVECTIVE SIGMET...NONE 
 
OUTLOOK VALID 181855-182255 
FROM 40NNE CHE-CYS-AMA-70SSE FST-80SSE MRF-40W ELP-40NNE CHE 
WST ISSUANCES POSS. REFER TO MOST RECENT ACUS01 KWNS FROM STORM 
PREDICTION CENTER FOR SYNOPSIS AND METEOROLOGICAL DETAILS. 


Southern Illinois University Carbondale



Southern Illinois University Carbondale



Home


Navigation

Internal Links


Libraries


People Finder


A-Z Index


Contact Us


Campus Map


Application Links








MyCourses


Office 365


SalukiNet




SIU Main Navigation


«Click to open SIU menu»



About SIU


Admissions


Academics


Students


Research


Athletics




